SL-16 R/B               
1 25400U 98043G   26015.47731240  .00000017  00000+0  25859-4 0  9997
2 25400  98.8169 328.4923 0010055 162.8838 197.2683 14.26034555431405
SL-16 R/B               
1 25407U 98045B   26015.17445265  .00000099  00000+0  73900-4 0  9992
2 25407  71.0119 294.1151 0005322 115.2414 244.9262 14.16180312419529
ISS (ZARYA)             
1 25544U 98067A   26015.27308479  .00009025  00000+0  16988-3 0  9994
2 25544  51.6333 336.4632 0007763  20.7339 339.3964 15.49304898548057
CZ-4B R/B               
1 25732U 99025C   26015.62341245  .00000035  00000+0  37695-4 0  9996
2 25732  98.6724  61.1379 0037877 136.4932 338.6471 14.18252378380648
OKEAN-O                 
1 25860U 99039A   26015.58946489  .00000464  00000+0  67904-4 0  9991
2 25860  97.9552  75.9909 0001712 107.3982 252.7417 14.80227716426536
SL-16 R/B               
1 25861U 99039B   26015.61967072  .00000356  00000+0  52078-4 0  9993
2 25861  98.0075  74.7652 0016092  71.6394 288.6568 14.81641659429005
DELTA 2 R/B             
1 25876U 99041E   26015.55818095  .00001928  00000+0  34798-3 0  9999
2 25876  51.7613 153.4350 0503587 191.4652 167.4450 14.11553653355521
HELIOS 1B               
1 25977U 99064A   26015.30598914  .00001224  00000+0  14171-3 0  9996
2 25977  98.1747 275.9690 0000616 134.8449 225.2816 14.87439158677323
TERRA                   
1 25994U 99068A   26015.65757920  .00000291  00000+0  68396-4 0  9993
2 25994  97.9700  71.0892 0002320  22.4353 146.5615 14.60944684387334
SL-16 R/B               
1 26070U 00006B   26015.59982860 -.00000268  00000+0 -11191-3 0  9995
2 26070  71.0003 209.4637 0018940 263.2494  96.6473 14.15813454341044
TITAN 4B R/B            
1 26474U 00047B   26015.61537607  .00002024  00000+0  13410-3 0  9992
2 26474  67.9873 189.6956 0036966 102.5267 258.0021 15.09052438384901
ENVISAT                 
1 27386U 02009A   26015.49957569  .00000062  00000+0  33967-4 0  9994
2 27386  98.3644 330.3927 0001165  91.2094  20.6193 14.39013344251525
